NORAD_CAT_ID,OBJECT_NAME,OBJECT_TYPE,EPOCH,MEAN_MOTION,ECCENTRICITY,INCLINATION,RA_OF_ASC_NODE,ARG_OF_PERICENTER,MEAN_ANOMALY,BSTAR,MEAN_MOTION_DOT,MEAN_MOTION_DDOT,TLE_LINE0,TLE_LINE1,TLE_LINE2,SEMIMAJOR_AXIS,PERIOD,APOGEE,PERIGEE,DECAYED
51883.0,STARLINK-3576,PAYLOAD,2023-07-27 01:54:08,15.08845256,7.65e-05,53.2172,333.6964,78.1944,281.9133,0.00015719,2.215e-05,0.0,0 STARLINK-3576,1 51883U 22022AH  23208.07926942  .00002215  00000-0  15719-3 0  9993,2 51883  53.2172 333.6964 0000765  78.1944 281.9133 15.08845256 78828,6917.864,95.437,540.259,539.2,0.0
51883.0,STARLINK-3576,PAYLOAD,2023-07-27 19:23:23,15.08840988,9.06e-05,53.2178,330.4216,104.8833,255.2259,6.5688e-05,7.58e-06,0.0,0 STARLINK-3576,1 51883U 22022AH  23208.80791161  .00000758  00000-0  65688-4 0  9998,2 51883  53.2178 330.4216 0000906 104.8833 255.2259 15.08840988 78932,6917.877,95.437,540.369,539.116,0.0
51883.0,STARLINK-3576,PAYLOAD,2023-07-28 01:44:56,15.08834346,8.81e-05,53.2177,329.2356,74.4011,285.7078,-3.1365e-05,-7.87e-06,0.0,0 STARLINK-3576,1 51883U 22022AH  23209.07287634 -.00000787  00000-0 -31365-4 0  9992,2 51883  53.2177 329.2356 0000881  74.4011 285.7078 15.08834346 78976,6917.898,95.438,540.372,539.153,0.0
51883.0,STARLINK-3576,PAYLOAD,2023-07-28 14:28:01,15.08842167,8.27e-05,53.2184,326.8545,97.6051,262.5035,-7.7364e-05,-1.519e-05,0.0,0 STARLINK-3576,1 51883U 22022AH  23209.60279658 -.00001519  00000-0 -77364-4 0  9991,2 51883  53.2184 326.8545 0000827  97.6051 262.5035 15.08842167 79054,6917.874,95.437,540.311,539.167,0.0
51883.0,STARLINK-3576,PAYLOAD,2023-07-28 19:14:10,15.08843162,9.82e-05,53.2184,325.9635,98.7398,261.3705,-1.8066e-05,-5.75e-06,0.0,0 STARLINK-3576,1 51883U 22022AH  23209.80151399 -.00000575  00000-0 -18066-4 0  9999,2 51883  53.2184 325.9635 0000982  98.7398 261.3705 15.08843162 79082,6917.871,95.437,540.415,539.056,0.0
51883.0,STARLINK-3576,PAYLOAD,2023-07-29 07:57:15,15.08874076,9.25e-05,53.2176,323.5846,76.5624,283.5471,-0.00044256,-7.331e-05,0.0,0 STARLINK-3576,1 51883U 22022AH  23210.33142461 -.00007331  00000-0 -44256-3 0  9995,2 51883  53.2176 323.5846 0000925  76.5624 283.5471 15.08874076 79167,6917.776,95.435,540.281,539.001,0.0
51883.0,STARLINK-3576,PAYLOAD,2023-07-29 14:18:48,15.08846161,0.0001037,53.2163,322.3972,85.1038,275.0072,0.00013713,1.896e-05,0.0,0 STARLINK-3576,1 51883U 22022AH  23210.59638951  .00001896  00000-0  13713-3 0  9999,2 51883  53.2163 322.3972 0001037  85.1038 275.0072 15.08846161 79202,6917.862,95.437,540.444,539.009,0.0
51883.0,STARLINK-3576,PAYLOAD,2023-07-30 10:58:50,15.08831536,0.0001258,53.2178,318.5309,86.617,273.4966,2.3346e-05,8.4e-07,0.0,0 STARLINK-3576,1 51883U 22022AH  23211.45752504  .00000084  00000-0  23346-4 0  9998,2 51883  53.2178 318.5309 0001258  86.6170 273.4966 15.08831536 79335,6917.906,95.438,540.642,538.901,0.0
51883.0,STARLINK-3576,PAYLOAD,2023-07-30 15:44:58,15.08841016,0.0001084,53.2181,317.6361,102.265,257.8463,8.5393e-05,1.072e-05,0.0,0 STARLINK-3576,1 51883U 22022AH  23211.65623626  .00001072  00000-0  85393-4 0  9990,2 51883  53.2181 317.6361 0001084 102.2650 257.8463 15.08841016 79367,6917.877,95.437,540.492,538.992,0.0
51883.0,STARLINK-3576,PAYLOAD,2023-08-01 15:26:33,15.08842741,0.0001116,53.2178,308.7169,76.7581,283.3535,0.00011434,1.533e-05,0.0,0 STARLINK-3576,1 51883U 22022AH  23213.64343832  .00001533  00000-0  11434-3 0  9995,2 51883  53.2178 308.7169 0001116  76.7581 283.3535 15.08842741 79667,6917.872,95.437,540.509,538.965,0.0
51883.0,STARLINK-3576,PAYLOAD,2023-08-03 10:21:57,15.08844493,0.0001257,53.2176,300.6869,70.746,289.3668,0.00012254,1.663e-05,0.0,0 STARLINK-3576,1 51883U 22022AH  23215.43192028  .00001663  00000-0  12254-3 0  9998,2 51883  53.2176 300.6869 0001257  70.7460 289.3668 15.08844493 79938,6917.867,95.437,540.601,538.862,0.0
51883.0,STARLINK-3576,PAYLOAD,2023-08-04 10:12:45,15.08837001,0.0001085,53.217,296.2249,84.3895,275.7221,-1.3292e-05,-4.99e-06,0.0,0 STARLINK-3576,1 51883U 22022AH  23216.42552505 -.00000499  00000-0 -13292-4 0  9990,2 51883  53.2170 296.2249 0001085  84.3895 275.7221 15.08837001 80085,6917.89,95.438,540.505,539.004,0.0
51883.0,STARLINK-3576,PAYLOAD,2023-08-04 13:23:32,15.08833686,0.000105,53.2176,295.6323,77.1933,282.9176,-5.72e-05,-1.198e-05,0.0,0 STARLINK-3576,1 51883U 22022AH  23216.55801112 -.00001198  00000-0 -57200-4 0  9999,2 51883  53.2176 295.6323 0001050  77.1933 282.9176 15.08833686 80109,6917.9,95.438,540.491,539.038,0.0
51883.0,STARLINK-3576,PAYLOAD,2023-08-05 10:03:31,15.0885422,0.0001306,53.2173,291.7678,47.6274,312.4828,4.9752e-05,5.04e-06,0.0,0 STARLINK-3576,1 51883U 22022AH  23217.41911704  .00000504  00000-0  49752-4 0  9995,2 51883  53.2173 291.7678 0001306  47.6274 312.4828 15.08854220 80234,6917.837,95.437,540.605,538.798,0.0
51883.0,STARLINK-3576,PAYLOAD,2023-08-06 05:08:09,15.08837744,0.0001302,53.216,288.1951,151.1814,208.925,9.3727e-05,1.204e-05,0.0,0 STARLINK-3576,1 51883U 22022AH  23218.21400272  .00001204  00000-0  93727-4 0  9996,2 51883  53.2160 288.1951 0001302 151.1814 208.9250 15.08837744 80354,6917.887,95.438,540.653,538.852,0.0
51883.0,STARLINK-3576,PAYLOAD,2023-08-06 11:29:43,15.08831008,0.0001023,53.2168,287.0109,64.461,295.6488,0.00010796,1.43e-05,0.0,0 STARLINK-3576,1 51883U 22022AH  23218.47897029  .00001430  00000-0  10796-3 0  9999,2 51883  53.2168 287.0109 0001023  64.4610 295.6488 15.08831008 80392,6917.908,95.438,540.481,539.065,0.0
51883.0,STARLINK-3576,PAYLOAD,2023-08-07 11:20:29,15.08848356,9.15e-05,53.2164,282.5506,86.8622,273.2475,-5.8443e-05,-1.218e-05,0.0,0 STARLINK-3576,1 51883U 22022AH  23219.47256532 -.00001218  00000-0 -58443-4 0  9996,2 51883  53.2164 282.5506 0000915  86.8622 273.2475 15.08848356 80548,6917.855,95.437,540.353,539.087,0.0
51883.0,STARLINK-3576,PAYLOAD,2023-08-08 11:11:16,15.08838573,9.65e-05,53.2159,278.0901,83.4988,276.6114,0.00015472,2.175e-05,0.0,0 STARLINK-3576,1 51883U 22022AH  23220.46616807  .00002175  00000-0  15472-3 0  9997,2 51883  53.2159 278.0901 0000965  83.4988 276.6114 15.08838573 80697,6917.885,95.438,540.417,539.082,0.0
51883.0,STARLINK-3576,PAYLOAD,2023-08-09 03:05:09,15.08827091,9.98e-05,53.2156,275.1162,86.3249,273.7857,0.00018947,2.728e-05,0.0,0 STARLINK-3576,1 51883U 22022AH  23221.12857705  .00002728  00000-0  18947-3 0  9999,2 51883  53.2156 275.1162 0000998  86.3249 273.7857 15.08827091 80795,6917.92,95.438,540.475,539.094,0.0
51883.0,STARLINK-3576,PAYLOAD,2023-08-09 12:37:27,15.088405,9.73e-05,53.2158,273.332,82.5107,277.5996,7.3177e-05,8.77e-06,0.0,0 STARLINK-3576,1 51883U 22022AH  23221.52601134  .00000877  00000-0  73177-4 0  9996,2 51883  53.2158 273.3320 0000973  82.5107 277.5996 15.08840500 80850,6917.879,95.438,540.417,539.071,0.0
51883.0,STARLINK-3576,PAYLOAD,2023-08-11 02:46:42,15.08839502,0.0001119,53.2161,266.1952,77.1719,282.9398,0.00010311,1.354e-05,0.0,0 STARLINK-3576,1 51883U 22022AH  23223.11577291  .00001354  00000-0  10311-3 0  9990,2 51883  53.2161 266.1952 0001119  77.1719 282.9398 15.08839502 81090,6917.882,95.438,540.521,538.973,0.0
51883.0,STARLINK-3576,PAYLOAD,2023-08-12 08:59:02,15.08841918,0.0001036,53.215,260.5447,77.4739,282.6369,5.5701e-05,5.99e-06,0.0,0 STARLINK-3576,1 51883U 22022AH  23224.37433214  .00000599  00000-0  55701-4 0  9998,2 51883  53.2150 260.5447 0001036  77.4739 282.6369 15.08841918 81288,6917.875,95.437,540.456,539.023,0.0
51883.0,STARLINK-3576,PAYLOAD,2023-08-13 10:25:12,15.08841102,0.0001144,53.2153,255.7867,83.8082,276.3041,2.7602e-05,1.52e-06,0.0,0 STARLINK-3576,1 51883U 22022AH  23225.43417254  .00000152  00000-0  27602-4 0  9996,2 51883  53.2153 255.7867 0001144  83.8082 276.3041 15.08841102 81445,6917.877,95.437,540.533,538.951,0.0
51883.0,STARLINK-3576,PAYLOAD,2023-08-14 18:12:55,15.08839175,0.0001132,53.2156,249.8388,87.7805,272.3317,4.886e-05,4.9e-06,0.0,0 STARLINK-3576,1 51883U 22022AH  23226.75897321  .00000490  00000-0  48860-4 0  9993,2 51883  53.2156 249.8388 0001132  87.7805 272.3317 15.08839175 81644,6917.883,95.438,540.531,538.965,0.0
51883.0,STARLINK-3576,PAYLOAD,2023-08-16 02:00:38,15.08835757,0.0001176,53.2158,243.8911,90.258,269.8547,1.5844e-05,-3.6e-07,0.0,0 STARLINK-3576,1 51883U 22022AH  23228.08377767 -.00000036  00000-0  15844-4 0  9991,2 51883  53.2158 243.8911 0001176  90.2580 269.8547 15.08835757 81849,6917.893,95.438,540.572,538.945,0.0
51883.0,STARLINK-3576,PAYLOAD,2023-08-17 08:12:57,15.08841381,0.0001261,53.216,238.2408,89.1464,270.9673,5.1042e-05,5.25e-06,0.0,0 STARLINK-3576,1 51883U 22022AH  23229.34233478  .00000525  00000-0  51042-4 0  9993,2 51883  53.2160 238.2408 0001261  89.1464 270.9673 15.08841381 82039,6917.876,95.437,540.614,538.869,0.0
51883.0,STARLINK-3576,PAYLOAD,2023-08-18 00:06:49,15.08834535,0.0001272,53.2158,235.2671,84.8696,275.2442,4.5769e-05,4.41e-06,0.0,0 STARLINK-3576,1 51883U 22022AH  23230.00474048  .00000441  00000-0  45769-4 0  9994,2 51883  53.2158 235.2671 0001272  84.8696 275.2442 15.08834535 82132,6917.897,95.438,540.642,538.882,0.0
51883.0,STARLINK-3576,PAYLOAD,2023-08-19 06:19:08,15.08842649,0.0001255,53.2156,229.6173,85.7637,274.3498,6.7036e-05,7.79e-06,0.0,0 STARLINK-3576,1 51883U 22022AH  23231.26329663  .00000779  00000-0  67036-4 0  9990,2 51883  53.2156 229.6173 0001255  85.7637 274.3498 15.08842649 82327,6917.872,95.437,540.605,538.869,0.0
51883.0,STARLINK-3576,PAYLOAD,2023-08-20 09:20:42,15.08841177,0.0001286,53.2154,224.5619,87.8283,272.2857,8.0035e-05,9.86e-06,0.0,0 STARLINK-3576,1 51883U 22022AH  23232.38937751  .00000986  00000-0  80035-4 0  9991,2 51883  53.2154 224.5619 0001286  87.8283 272.2857 15.08841177 82497,6917.877,95.437,540.631,538.852,0.0
51883.0,STARLINK-3576,PAYLOAD,2023-08-22 04:16:07,15.0883569,0.0001365,53.216,216.532,96.4364,263.6783,3.0932e-06,-2.39e-06,0.0,0 STARLINK-3576,1 51883U 22022AH  23234.17786385 -.00000239  00000-0  30932-5 0  9999,2 51883  53.2160 216.5320 0001365  96.4364 263.6783 15.08835690 82763,6917.894,95.438,540.703,538.814,0.0
